{
  "type": "FeatureCollection",
  "features": [
    {
      "type": "Feature",
      "properties": {
        "norad_id": 40118,
        "name": "GAOFEN-2",
        "group": "resource",
        "lat": -32.16205916517943,
        "lon": -129.6703535698027,
        "alt_km": 637.0553952040382,
        "timestamp": "2025-12-22T05:49:03.139388+00:00",
        "meta_object_name": "GAOFEN-2",
        "meta_object_id": "2014-049A",
        "meta_epoch": "2025-12-21T20:45:08.248320",
        "meta_mean_motion": 14.80622726,
        "meta_eccentricity": 0.0008761,
        "meta_inclination": 98.0376,
        "meta_ra_of_asc_node": 55.049,
        "meta_arg_of_pericenter": 87.859,
        "meta_mean_anomaly": 272.3625,
        "meta_ephemeris_type": 0,
        "meta_classification_type": "U",
        "meta_norad_cat_id": 40118,
        "meta_element_set_no": 999,
        "meta_rev_at_epoch": 61299,
        "meta_bstar": 8.6738e-05,
        "meta_mean_motion_dot": 6.13e-06,
        "meta_mean_motion_ddot": 0,
        "tle_line1": "1 40118U 14049A   25355.86467880  .00000613  00000+0  86738-4 0  9994",
        "tle_line2": "2 40118  98.0376  55.0490 0008761  87.8590 272.3625 14.80622726612993"
      },
      "geometry": {
        "type": "Point",
        "coordinates": [
          -129.6703535698027,
          -32.16205916517943
        ]
      }
    },
    {
      "type": "Feature",
      "properties": {
        "norad_id": 40143,
        "name": "YAOGAN-21",
        "group": "resource",
        "lat": -27.491522562110156,
        "lon": -144.6161753448715,
        "alt_km": 506.223331742206,
        "timestamp": "2025-12-22T05:49:03.139399+00:00",
        "meta_object_name": "YAOGAN-21",
        "meta_object_id": "2014-053A",
        "meta_epoch": "2025-12-21T21:01:43.565952",
        "meta_mean_motion": 15.23756036,
        "meta_eccentricity": 0.0008874,
        "meta_inclination": 97.1742,
        "meta_ra_of_asc_node": 38.7918,
        "meta_arg_of_pericenter": 11.8367,
        "meta_mean_anomaly": 348.3078,
        "meta_ephemeris_type": 0,
        "meta_classification_type": "U",
        "meta_norad_cat_id": 40143,
        "meta_element_set_no": 999,
        "meta_rev_at_epoch": 62793,
        "meta_bstar": 0.00010927,
        "meta_mean_motion_dot": 2.562e-05,
        "meta_mean_motion_ddot": 0,
        "tle_line1": "1 40143U 14053A   25355.87619868  .00002562  00000+0  10927-3 0  9994",
        "tle_line2": "2 40143  97.1742  38.7918 0008874  11.8367 348.3078 15.23756036627931"
      },
      "geometry": {
        "type": "Point",
        "coordinates": [
          -144.6161753448715,
          -27.491522562110156
        ]
      }
    },
    {
      "type": "Feature",
      "properties": {
        "norad_id": 40275,
        "name": "YAOGAN-22",
        "group": "resource",
        "lat": 46.57300213659955,
        "lon": -28.63448460447612,
        "alt_km": 1197.8610541666658,
        "timestamp": "2025-12-22T05:49:03.139409+00:00",
        "meta_object_name": "YAOGAN-22",
        "meta_object_id": "2014-063A",
        "meta_epoch": "2025-12-21T20:01:14.576736",
        "meta_mean_motion": 13.15522949,
        "meta_eccentricity": 0.0006043,
        "meta_inclination": 100.7428,
        "meta_ra_of_asc_node": 139.3823,
        "meta_arg_of_pericenter": 226.3916,
        "meta_mean_anomaly": 133.6694,
        "meta_ephemeris_type": 0,
        "meta_classification_type": "U",
        "meta_norad_cat_id": 40275,
        "meta_element_set_no": 999,
        "meta_rev_at_epoch": 53649,
        "meta_bstar": 7.0189e-05,
        "meta_mean_motion_dot": -2e-07,
        "meta_mean_motion_ddot": 0,
        "tle_line1": "1 40275U 14063A   25355.83419649 -.00000020  00000+0  70189-4 0  9997",
        "tle_line2": "2 40275 100.7428 139.3823 0006043 226.3916 133.6694 13.15522949536493"
      },
      "geometry": {
        "type": "Point",
        "coordinates": [
          -28.63448460447612,
          46.57300213659955
        ]
      }
    },
    {
      "type": "Feature",
      "properties": {
        "norad_id": 40298,
        "name": "ASNARO",
        "group": "resource",
        "lat": 64.45126323934191,
        "lon": -92.34414153080341,
        "alt_km": 496.8653945075139,
        "timestamp": "2025-12-22T05:49:03.139420+00:00",
        "meta_object_name": "ASNARO",
        "meta_object_id": "2014-070A",
        "meta_epoch": "2025-12-21T19:50:02.610240",
        "meta_mean_motion": 15.19661836,
        "meta_eccentricity": 0.0005686,
        "meta_inclination": 97.3648,
        "meta_ra_of_asc_node": 71.5512,
        "meta_arg_of_pericenter": 97.7377,
        "meta_mean_anomaly": 262.4504,
        "meta_ephemeris_type": 0,
        "meta_classification_type": "U",
        "meta_norad_cat_id": 40298,
        "meta_element_set_no": 999,
        "meta_rev_at_epoch": 61707,
        "meta_bstar": 0.00033723,
        "meta_mean_motion_dot": 7.13e-05,
        "meta_mean_motion_ddot": 0,
        "tle_line1": "1 40298U 14070A   25355.82641910  .00007130  00000+0  33723-3 0  9997",
        "tle_line2": "2 40298  97.3648  71.5512 0005686  97.7377 262.4504 15.19661836617078"
      },
      "geometry": {
        "type": "Point",
        "coordinates": [
          -92.34414153080341,
          64.45126323934191
        ]
      }
    },
    {
      "type": "Feature",
      "properties": {
        "norad_id": 40310,
        "name": "YAOGAN-24",
        "group": "resource",
        "lat": 43.97440249573036,
        "lon": 119.4661876220832,
        "alt_km": 633.1089868710387,
        "timestamp": "2025-12-22T05:49:03.139430+00:00",
        "meta_object_name": "YAOGAN-24",
        "meta_object_id": "2014-072A",
        "meta_epoch": "2025-12-21T19:51:20.866176",
        "meta_mean_motion": 14.76195173,
        "meta_eccentricity": 0.0015128,
        "meta_inclination": 98.1228,
        "meta_ra_of_asc_node": 126.9695,
        "meta_arg_of_pericenter": 110.6393,
        "meta_mean_anomaly": 249.644,
        "meta_ephemeris_type": 0,
        "meta_classification_type": "U",
        "meta_norad_cat_id": 40310,
        "meta_element_set_no": 999,
        "meta_rev_at_epoch": 59755,
        "meta_bstar": 0.00014151,
        "meta_mean_motion_dot": 9.28e-06,
        "meta_mean_motion_ddot": 0,
        "tle_line1": "1 40310U 14072A   25355.82732484  .00000928  00000+0  14151-3 0  9993",
        "tle_line2": "2 40310  98.1228 126.9695 0015128 110.6393 249.6440 14.76195173597552"
      },
      "geometry": {
        "type": "Point",
        "coordinates": [
          119.4661876220832,
          43.97440249573036
        ]
      }
    },
    {
      "type": "Feature",
      "properties": {
        "norad_id": 40336,
        "name": "CBERS 4",
        "group": "resource",
        "lat": -16.102322294394913,
        "lon": -128.49011075010517,
        "alt_km": 778.252599288734,
        "timestamp": "2025-12-22T05:49:03.139445+00:00",
        "meta_object_name": "CBERS 4",
        "meta_object_id": "2014-079A",
        "meta_epoch": "2025-12-21T20:32:33.336960",
        "meta_mean_motion": 14.35520411,
        "meta_eccentricity": 0.0001832,
        "meta_inclination": 98.33,
        "meta_ra_of_asc_node": 53.5608,
        "meta_arg_of_pericenter": 101.6626,
        "meta_mean_anomaly": 258.4766,
        "meta_ephemeris_type": 0,
        "meta_classification_type": "U",
        "meta_norad_cat_id": 40336,
        "meta_element_set_no": 999,
        "meta_rev_at_epoch": 57851,
        "meta_bstar": 2.5005e-05,
        "meta_mean_motion_dot": 3e-07,
        "meta_mean_motion_ddot": 0,
        "tle_line1": "1 40336U 14079A   25355.85594140  .00000030  00000+0  25005-4 0  9991",
        "tle_line2": "2 40336  98.3300  53.5608 0001832 101.6626 258.4766 14.35520411578514"
      },
      "geometry": {
        "type": "Point",
        "coordinates": [
          -128.49011075010517,
          -16.102322294394913
        ]
      }
    },
    {
      "type": "Feature",
      "properties": {
        "norad_id": 40362,
        "name": "YAOGAN-26",
        "group": "resource",
        "lat": 77.77852171768184,
        "lon": -148.49679492638936,
        "alt_km": 440.5652997354,
        "timestamp": "2025-12-22T05:49:03.139457+00:00",
        "meta_object_name": "YAOGAN-26",
        "meta_object_id": "2014-088A",
        "meta_epoch": "2025-12-21T20:01:33.132864",
        "meta_mean_motion": 15.39586783,
        "meta_eccentricity": 0.000495,
        "meta_inclination": 97.0638,
        "meta_ra_of_asc_node": 356.185,
        "meta_arg_of_pericenter": 2.5848,
        "meta_mean_anomaly": 357.5423,
        "meta_ephemeris_type": 0,
        "meta_classification_type": "U",
        "meta_norad_cat_id": 40362,
        "meta_element_set_no": 999,
        "meta_rev_at_epoch": 61034,
        "meta_bstar": 0.00024653,
        "meta_mean_motion_dot": 9.63e-05,
        "meta_mean_motion_ddot": 0,
        "tle_line1": "1 40362U 14088A   25355.83441126  .00009630  00000+0  24653-3 0  9995",
        "tle_line2": "2 40362  97.0638 356.1850 0004950   2.5848 357.5423 15.39586783610341"
      },
      "geometry": {
        "type": "Point",
        "coordinates": [
          -148.49679492638936,
          77.77852171768184
        ]
      }
    }
  ]
}